ONEWEB-0223             
1 48768U 21045B   25285.32244046 -.00000120  00000+0 -35200-3 0  9999
2 48768  87.8979 308.6501 0001797 109.1363 250.9962 13.15548232211813
ONEWEB-0230             
1 48769U 21045C   25285.14180011  .00000191  00000+0  47319-3 0  9991
2 48769  87.8969 308.7182 0001688  90.3830 269.7494 13.15547199212054
ONEWEB-0237             
1 48770U 21045D   25285.13071348  .00000099  00000+0  22859-3 0  9993
2 48770  87.8976 308.7180 0001702 102.4043 257.7278 13.15547996211770
ONEWEB-0235             
1 48771U 21045E   25285.33353249 -.00000173  00000+0 -49436-3 0  9994
2 48771  87.8977 308.6488 0001747 110.3312 249.8006 13.15548385211794
ONEWEB-0242             
1 48772U 21045F   25285.32718677 -.00000085  00000+0 -25999-3 0  9994
2 48772  87.8986 308.6384 0001674  97.1901 262.9420 13.15546770211832
ONEWEB-0241             
1 48773U 21045G   25285.31451576 -.00000078  00000+0 -24181-3 0  9990
2 48773  87.8974 308.6852 0002043 106.4380 253.6975 13.15547146211746
ONEWEB-0243             
1 48774U 21045H   25285.11803077  .00000071  00000+0  15326-3 0  9998
2 48774  87.8981 308.7298 0001629 105.6108 254.5202 13.15547761211744
ONEWEB-0222             
1 48775U 21045J   25285.32957153 -.00000107  00000+0 -31923-3 0  9990
2 48775  87.8982 308.6393 0001835  99.3457 260.7881 13.15548629211810
ONEWEB-0244             
1 48776U 21045K   25285.12753361  .00000071  00000+0  15344-3 0  9991
2 48776  87.8986 308.6640 0001776  99.1725 260.9606 13.15547145212359
ONEWEB-0247             
1 48777U 21045L   25285.12437004  .00000020  00000+0  20134-4 0  9993
2 48777  87.8973 308.7299 0001513 127.5128 232.6140 13.15548104211791
ONEWEB-0245             
1 48778U 21045M   25285.11962001  .00000019  00000+0  15261-4 0  9996
2 48778  87.8972 308.6947 0002023  99.1908 260.9451 13.15548711211767
ONEWEB-0229             
1 48779U 21045N   25285.11486255 -.00000002  00000+0 -39217-4 0  9990
2 48779  87.8974 308.6951 0001712  96.2629 263.8697 13.15548285211790
ONEWEB-0228             
1 48780U 21045P   25285.30039596  .00000166  00000+0  40754-3 0  9991
2 48780  87.8984 308.6360 0001811  97.5251 262.6085 13.15547890211735
ONEWEB-0232             
1 48781U 21045Q   25285.12279322  .00000112  00000+0  26430-3 0  9991
2 48781  87.8977 308.6623 0001819  95.4721 264.6617 13.15548866212038
ONEWEB-0231             
1 48782U 21045R   25285.32878004 -.00000095  00000+0 -28523-3 0  9993
2 48782  87.8975 308.6716 0001674 102.8794 257.2524 13.15547740211755
ONEWEB-0234             
1 48783U 21045S   25285.13849757  .00000188  00000+0  46580-3 0  9990
2 48783  87.8977 308.6803 0002718  90.4307 269.7135 13.15548407211866
