[{"OBJECT_NAME":"ONEWEB-0223","OBJECT_ID":"2021-045B","EPOCH":"2025-10-12T07:44:18.855744","MEAN_MOTION":13.15548232,"ECCENTRICITY":0.00017973,"INCLINATION":87.8979,"RA_OF_ASC_NODE":308.6501,"ARG_OF_PERICENTER":109.1363,"MEAN_ANOMALY":250.9962,"EPHEMERIS_TYPE":0,"CLASSIFICATION_TYPE":"U","NORAD_CAT_ID":48768,"ELEMENT_SET_NO":999,"REV_AT_EPOCH":21181,"BSTAR":-0.00035200456,"MEAN_MOTION_DOT":-1.2e-6,"MEAN_MOTION_DDOT":0},{"OBJECT_NAME":"ONEWEB-0230","OBJECT_ID":"2021-045C","EPOCH":"2025-10-12T03:24:11.529504","MEAN_MOTION":13.15547199,"ECCENTRICITY":0.00016882,"INCLINATION":87.8969,"RA_OF_ASC_NODE":308.7182,"ARG_OF_PERICENTER":90.383,"MEAN_ANOMALY":269.7494,"EPHEMERIS_TYPE":0,"CLASSIFICATION_TYPE":"U","NORAD_CAT_ID":48769,"ELEMENT_SET_NO":999,"REV_AT_EPOCH":21205,"BSTAR":0.00047319063,"MEAN_MOTION_DOT":1.91e-6,"MEAN_MOTION_DDOT":0},{"OBJECT_NAME":"ONEWEB-0237","OBJECT_ID":"2021-045D","EPOCH":"2025-10-12T03:08:13.644672","MEAN_MOTION":13.15547996,"ECCENTRICITY":0.00017021,"INCLINATION":87.8976,"RA_OF_ASC_NODE":308.718,"ARG_OF_PERICENTER":102.4043,"MEAN_ANOMALY":257.7278,"EPHEMERIS_TYPE":0,"CLASSIFICATION_TYPE":"U","NORAD_CAT_ID":48770,"ELEMENT_SET_NO":999,"REV_AT_EPOCH":21177,"BSTAR":0.0002285851,"MEAN_MOTION_DOT":9.9e-7,"MEAN_MOTION_DDOT":0},{"OBJECT_NAME":"ONEWEB-0235","OBJECT_ID":"2021-045E","EPOCH":"2025-10-12T08:00:17.207136","MEAN_MOTION":13.15548385,"ECCENTRICITY":0.00017478,"INCLINATION":87.8977,"RA_OF_ASC_NODE":308.6488,"ARG_OF_PERICENTER":110.3312,"MEAN_ANOMALY":249.8006,"EPHEMERIS_TYPE":0,"CLASSIFICATION_TYPE":"U","NORAD_CAT_ID":48771,"ELEMENT_SET_NO":999,"REV_AT_EPOCH":21179,"BSTAR":-0.0004943624,"MEAN_MOTION_DOT":-1.73e-6,"MEAN_MOTION_DDOT":0},{"OBJECT_NAME":"ONEWEB-0242","OBJECT_ID":"2021-045F","EPOCH":"2025-10-12T07:51:08.936928","MEAN_MOTION":13.1554677,"ECCENTRICITY":0.00016748,"INCLINATION":87.8986,"RA_OF_ASC_NODE":308.6384,"ARG_OF_PERICENTER":97.1901,"MEAN_ANOMALY":262.942,"EPHEMERIS_TYPE":0,"CLASSIFICATION_TYPE":"U","NORAD_CAT_ID":48772,"ELEMENT_SET_NO":999,"REV_AT_EPOCH":21183,"BSTAR":-0.00025998599,"MEAN_MOTION_DOT":-8.5e-7,"MEAN_MOTION_DDOT":0},{"OBJECT_NAME":"ONEWEB-0241","OBJECT_ID":"2021-045G","EPOCH":"2025-10-12T07:32:54.161664","MEAN_MOTION":13.15547146,"ECCENTRICITY":0.00020432,"INCLINATION":87.8974,"RA_OF_ASC_NODE":308.6852,"ARG_OF_PERICENTER":106.438,"MEAN_ANOMALY":253.6975,"EPHEMERIS_TYPE":0,"CLASSIFICATION_TYPE":"U","NORAD_CAT_ID":48773,"ELEMENT_SET_NO":999,"REV_AT_EPOCH":21174,"BSTAR":-0.00024181124,"MEAN_MOTION_DOT":-7.8e-7,"MEAN_MOTION_DDOT":0},{"OBJECT_NAME":"ONEWEB-0243","OBJECT_ID":"2021-045H","EPOCH":"2025-10-12T02:49:57.858528","MEAN_MOTION":13.15547761,"ECCENTRICITY":0.00016296,"INCLINATION":87.8981,"RA_OF_ASC_NODE":308.7298,"ARG_OF_PERICENTER":105.6108,"MEAN_ANOMALY":254.5202,"EPHEMERIS_TYPE":0,"CLASSIFICATION_TYPE":"U","NORAD_CAT_ID":48774,"ELEMENT_SET_NO":999,"REV_AT_EPOCH":21174,"BSTAR":0.00015325732,"MEAN_MOTION_DOT":7.1e-7,"MEAN_MOTION_DDOT":0},{"OBJECT_NAME":"ONEWEB-0222","OBJECT_ID":"2021-045J","EPOCH":"2025-10-12T07:54:34.980192","MEAN_MOTION":13.15548629,"ECCENTRICITY":0.00018352,"INCLINATION":87.8982,"RA_OF_ASC_NODE":308.6393,"ARG_OF_PERICENTER":99.3457,"MEAN_ANOMALY":260.7881,"EPHEMERIS_TYPE":0,"CLASSIFICATION_TYPE":"U","NORAD_CAT_ID":48775,"ELEMENT_SET_NO":999,"REV_AT_EPOCH":21181,"BSTAR":-0.00031922852,"MEAN_MOTION_DOT":-1.07e-6,"MEAN_MOTION_DDOT":0},{"OBJECT_NAME":"ONEWEB-0244","OBJECT_ID":"2021-045K","EPOCH":"2025-10-12T03:03:38.903904","MEAN_MOTION":13.15547145,"ECCENTRICITY":0.00017767,"INCLINATION":87.8986,"RA_OF_ASC_NODE":308.664,"ARG_OF_PERICENTER":99.1725,"MEAN_ANOMALY":260.9606,"EPHEMERIS_TYPE":0,"CLASSIFICATION_TYPE":"U","NORAD_CAT_ID":48776,"ELEMENT_SET_NO":999,"REV_AT_EPOCH":21235,"BSTAR":0.00015344299,"MEAN_MOTION_DOT":7.1e-7,"MEAN_MOTION_DDOT":0},{"OBJECT_NAME":"ONEWEB-0247","OBJECT_ID":"2021-045L","EPOCH":"2025-10-12T02:59:05.571456","MEAN_MOTION":13.15548104,"ECCENTRICITY":0.00015136,"INCLINATION":87.8973,"RA_OF_ASC_NODE":308.7299,"ARG_OF_PERICENTER":127.5128,"MEAN_ANOMALY":232.614,"EPHEMERIS_TYPE":0,"CLASSIFICATION_TYPE":"U","NORAD_CAT_ID":48777,"ELEMENT_SET_NO":999,"REV_AT_EPOCH":21179,"BSTAR":2.013366e-5,"MEAN_MOTION_DOT":2.0e-7,"MEAN_MOTION_DDOT":0},{"OBJECT_NAME":"ONEWEB-0245","OBJECT_ID":"2021-045M","EPOCH":"2025-10-12T02:52:15.168864","MEAN_MOTION":13.15548711,"ECCENTRICITY":0.00020233,"INCLINATION":87.8972,"RA_OF_ASC_NODE":308.6947,"ARG_OF_PERICENTER":99.1908,"MEAN_ANOMALY":260.9451,"EPHEMERIS_TYPE":0,"CLASSIFICATION_TYPE":"U","NORAD_CAT_ID":48778,"ELEMENT_SET_NO":999,"REV_AT_EPOCH":21176,"BSTAR":1.5261458e-5,"MEAN_MOTION_DOT":1.9e-7,"MEAN_MOTION_DDOT":0},{"OBJECT_NAME":"ONEWEB-0229","OBJECT_ID":"2021-045N","EPOCH":"2025-10-12T02:45:24.124320","MEAN_MOTION":13.15548285,"ECCENTRICITY":0.00017128,"INCLINATION":87.8974,"RA_OF_ASC_NODE":308.6951,"ARG_OF_PERICENTER":96.2629,"MEAN_ANOMALY":263.8697,"EPHEMERIS_TYPE":0,"CLASSIFICATION_TYPE":"U","NORAD_CAT_ID":48779,"ELEMENT_SET_NO":999,"REV_AT_EPOCH":21179,"BSTAR":-3.9217475e-5,"MEAN_MOTION_DOT":-2.0e-8,"MEAN_MOTION_DDOT":0},{"OBJECT_NAME":"ONEWEB-0228","OBJECT_ID":"2021-045P","EPOCH":"2025-10-12T07:12:34.210944","MEAN_MOTION":13.1554789,"ECCENTRICITY":0.00018118,"INCLINATION":87.8984,"RA_OF_ASC_NODE":308.636,"ARG_OF_PERICENTER":97.5251,"MEAN_ANOMALY":262.6085,"EPHEMERIS_TYPE":0,"CLASSIFICATION_TYPE":"U","NORAD_CAT_ID":48780,"ELEMENT_SET_NO":999,"REV_AT_EPOCH":21173,"BSTAR":0.00040754238,"MEAN_MOTION_DOT":1.66e-6,"MEAN_MOTION_DDOT":0},{"OBJECT_NAME":"ONEWEB-0232","OBJECT_ID":"2021-045Q","EPOCH":"2025-10-12T02:56:49.334208","MEAN_MOTION":13.15548866,"ECCENTRICITY":0.00018195,"INCLINATION":87.8977,"RA_OF_ASC_NODE":308.6623,"ARG_OF_PERICENTER":95.4721,"MEAN_ANOMALY":264.6617,"EPHEMERIS_TYPE":0,"CLASSIFICATION_TYPE":"U","NORAD_CAT_ID":48781,"ELEMENT_SET_NO":999,"REV_AT_EPOCH":21203,"BSTAR":0.0002642966,"MEAN_MOTION_DOT":1.12e-6,"MEAN_MOTION_DDOT":0},{"OBJECT_NAME":"ONEWEB-0231","OBJECT_ID":"2021-045R","EPOCH":"2025-10-12T07:53:26.595456","MEAN_MOTION":13.1554774,"ECCENTRICITY":0.00016742,"INCLINATION":87.8975,"RA_OF_ASC_NODE":308.6716,"ARG_OF_PERICENTER":102.8794,"MEAN_ANOMALY":257.2524,"EPHEMERIS_TYPE":0,"CLASSIFICATION_TYPE":"U","NORAD_CAT_ID":48782,"ELEMENT_SET_NO":999,"REV_AT_EPOCH":21175,"BSTAR":-0.00028522587,"MEAN_MOTION_DOT":-9.5e-7,"MEAN_MOTION_DDOT":0},{"OBJECT_NAME":"ONEWEB-0234","OBJECT_ID":"2021-045S","EPOCH":"2025-10-12T03:19:26.190048","MEAN_MOTION":13.15548407,"ECCENTRICITY":0.0002718,"INCLINATION":87.8977,"RA_OF_ASC_NODE":308.6803,"ARG_OF_PERICENTER":90.4307,"MEAN_ANOMALY":269.7135,"EPHEMERIS_TYPE":0,"CLASSIFICATION_TYPE":"U","NORAD_CAT_ID":48783,"ELEMENT_SET_NO":999,"REV_AT_EPOCH":21186,"BSTAR":0.00046580155,"MEAN_MOTION_DOT":1.88e-6,"MEAN_MOTION_DDOT":0}]
